STARLINK-1154
1 45198U 20012W   26061.11904821  .00082394  00000+0  17344-2 0  9999
2 45198  53.0490  46.0800 0007208  55.7341 304.4346 15.44568952334126
